[
    {
        "ARG_OF_PERICENTER": 171.1603,
        "BSTAR": 0.00010623568,
        "CLASSIFICATION_TYPE": "U",
        "ECCENTRICITY": 0.00096891,
        "ELEMENT_SET_NO": 999,
        "EPHEMERIS_TYPE": 0,
        "EPOCH": "2026-06-19T13:35:11.395968",
        "INCLINATION": 98.6736,
        "MEAN_ANOMALY": 188.9749,
        "MEAN_MOTION": 14.24336935,
        "MEAN_MOTION_DDOT": 0,
        "MEAN_MOTION_DOT": 2.02e-06,
        "NORAD_CAT_ID": 27844,
        "OBJECT_ID": "2003-031E",
        "OBJECT_NAME": "CUTE-1 (CO-55)",
        "RA_OF_ASC_NODE": 179.0951,
        "REV_AT_EPOCH": 19201
    },
    {
        "ARG_OF_PERICENTER": 190.0962,
        "BSTAR": 9.1470744e-05,
        "CLASSIFICATION_TYPE": "U",
        "ECCENTRICITY": 0.0009188,
        "ELEMENT_SET_NO": 999,
        "EPHEMERIS_TYPE": 0,
        "EPOCH": "2026-06-19T11:39:04.784256",
        "INCLINATION": 98.6765,
        "MEAN_ANOMALY": 170.0034,
        "MEAN_MOTION": 14.23621824,
        "MEAN_MOTION_DDOT": 0,
        "MEAN_MOTION_DOT": 1.65e-06,
        "NORAD_CAT_ID": 27848,
        "OBJECT_ID": "2003-031J",
        "OBJECT_NAME": "CUBESAT XI-IV (CO-57)",
        "RA_OF_ASC_NODE": 178.7263,
        "REV_AT_EPOCH": 19170
    },
    {
        "ARG_OF_PERICENTER": 193.6141,
        "BSTAR": 0.00017676343,
        "CLASSIFICATION_TYPE": "U",
        "ECCENTRICITY": 0.00137979,
        "ELEMENT_SET_NO": 999,
        "EPHEMERIS_TYPE": 0,
        "EPOCH": "2026-06-19T08:57:11.428416",
        "INCLINATION": 98.2987,
        "MEAN_ANOMALY": 166.4695,
        "MEAN_MOTION": 14.72636457,
        "MEAN_MOTION_DDOT": 0,
        "MEAN_MOTION_DOT": 1.074e-05,
        "NORAD_CAT_ID": 28895,
        "OBJECT_ID": "2005-043F",
        "OBJECT_NAME": "CUBESAT XI-V",
        "RA_OF_ASC_NODE": 326.0406,
        "REV_AT_EPOCH": 10207
    },
    {
        "ARG_OF_PERICENTER": 31.2532,
        "BSTAR": 0.00028386961,
        "CLASSIFICATION_TYPE": "U",
        "ECCENTRICITY": 0.00095292,
        "ELEMENT_SET_NO": 999,
        "EPHEMERIS_TYPE": 0,
        "EPOCH": "2026-06-19T13:39:16.197408",
        "INCLINATION": 97.8277,
        "MEAN_ANOMALY": 328.9261,
        "MEAN_MOTION": 15.0946953,
        "MEAN_MOTION_DDOT": 0,
        "MEAN_MOTION_DOT": 4.483e-05,
        "NORAD_CAT_ID": 32785,
        "OBJECT_ID": "2008-021C",
        "OBJECT_NAME": "CUTE-1.7+APD II (CO-65)",
        "RA_OF_ASC_NODE": 152.037,
        "REV_AT_EPOCH": 98555
    },
    {
        "ARG_OF_PERICENTER": 44.3098,
        "BSTAR": 0.00023110421,
        "CLASSIFICATION_TYPE": "U",
        "ECCENTRICITY": 0.00113909,
        "ELEMENT_SET_NO": 999,
        "EPHEMERIS_TYPE": 0,
        "EPOCH": "2026-06-19T11:33:11.777184",
        "INCLINATION": 97.8642,
        "MEAN_ANOMALY": 315.9038,
        "MEAN_MOTION": 15.05633347,
        "MEAN_MOTION_DDOT": 0,
        "MEAN_MOTION_DOT": 3.274e-05,
        "NORAD_CAT_ID": 32790,
        "OBJECT_ID": "2008-021H",
        "OBJECT_NAME": "CANX-2",
        "RA_OF_ASC_NODE": 150.3034,
        "REV_AT_EPOCH": 98515
    },
    {
        "ARG_OF_PERICENTER": 349.7207,
        "BSTAR": 0.00046962589,
        "CLASSIFICATION_TYPE": "U",
        "ECCENTRICITY": 7.441e-05,
        "ELEMENT_SET_NO": 999,
        "EPHEMERIS_TYPE": 0,
        "EPOCH": "2026-06-19T13:13:28.513344",
        "INCLINATION": 97.7522,
        "MEAN_ANOMALY": 10.4018,
        "MEAN_MOTION": 15.32817335,
        "MEAN_MOTION_DDOT": 0,
        "MEAN_MOTION_DOT": 0.00014814,
        "NORAD_CAT_ID": 32791,
        "OBJECT_ID": "2008-021J",
        "OBJECT_NAME": "SEEDS II (CO-66)",
        "RA_OF_ASC_NODE": 168.5617,
        "REV_AT_EPOCH": 98765
    },
    {
        "ARG_OF_PERICENTER": 194.99,
        "BSTAR": 0.00015057186,
        "CLASSIFICATION_TYPE": "U",
        "ECCENTRICITY": 0.00061201,
        "ELEMENT_SET_NO": 999,
        "EPHEMERIS_TYPE": 0,
        "EPOCH": "2026-06-19T11:52:35.111712",
        "INCLINATION": 98.4033,
        "MEAN_ANOMALY": 165.1121,
        "MEAN_MOTION": 14.62485188,
        "MEAN_MOTION_DDOT": 0,
        "MEAN_MOTION_DOT": 7.14e-06,
        "NORAD_CAT_ID": 35932,
        "OBJECT_ID": "2009-051B",
        "OBJECT_NAME": "SWISSCUBE",
        "RA_OF_ASC_NODE": 78.4234,
        "REV_AT_EPOCH": 88949
    },
    {
        "ARG_OF_PERICENTER": 208.2389,
        "BSTAR": 0.0001310921,
        "CLASSIFICATION_TYPE": "U",
        "ECCENTRICITY": 0.00043617,
        "ELEMENT_SET_NO": 999,
        "EPHEMERIS_TYPE": 0,
        "EPOCH": "2026-06-19T12:07:54.017184",
        "INCLINATION": 98.3961,
        "MEAN_ANOMALY": 151.8576,
        "MEAN_MOTION": 14.61723595,
        "MEAN_MOTION_DDOT": 0,
        "MEAN_MOTION_DOT": 6.04e-06,
        "NORAD_CAT_ID": 35933,
        "OBJECT_ID": "2009-051C",
        "OBJECT_NAME": "BEESAT-1",
        "RA_OF_ASC_NODE": 78.0648,
        "REV_AT_EPOCH": 88952
    },
    {
        "ARG_OF_PERICENTER": 226.1339,
        "BSTAR": 0.00012725014,
        "CLASSIFICATION_TYPE": "U",
        "ECCENTRICITY": 0.00063357,
        "ELEMENT_SET_NO": 999,
        "EPHEMERIS_TYPE": 0,
        "EPOCH": "2026-06-19T07:01:43.770144",
        "INCLINATION": 98.4046,
        "MEAN_ANOMALY": 133.9337,
        "MEAN_MOTION": 14.60443384,
        "MEAN_MOTION_DDOT": 0,
        "MEAN_MOTION_DOT": 5.68e-06,
        "NORAD_CAT_ID": 35935,
        "OBJECT_ID": "2009-051E",
        "OBJECT_NAME": "ITUPSAT1",
        "RA_OF_ASC_NODE": 77.0386,
        "REV_AT_EPOCH": 88904
    },
    {
        "ARG_OF_PERICENTER": 165.4538,
        "BSTAR": 0.00057549976,
        "CLASSIFICATION_TYPE": "U",
        "ECCENTRICITY": 0.00016997,
        "ELEMENT_SET_NO": 999,
        "EPHEMERIS_TYPE": 0,
        "EPOCH": "2026-06-19T08:07:01.295616",
        "INCLINATION": 98.0711,
        "MEAN_ANOMALY": 194.675,
        "MEAN_MOTION": 15.31776747,
        "MEAN_MOTION_DDOT": 0,
        "MEAN_MOTION_DOT": 0.00017593,
        "NORAD_CAT_ID": 36799,
        "OBJECT_ID": "2010-035E",
        "OBJECT_NAME": "TISAT 1",
        "RA_OF_ASC_NODE": 117.0778,
        "REV_AT_EPOCH": 86803
    },
    {
        "ARG_OF_PERICENTER": 229.0136,
        "BSTAR": 0.0009929062,
        "CLASSIFICATION_TYPE": "U",
        "ECCENTRICITY": 0.00193716,
        "ELEMENT_SET_NO": 999,
        "EPHEMERIS_TYPE": 0,
        "EPOCH": "2026-06-18T23:28:22.382976",
        "INCLINATION": 64.6225,
        "MEAN_ANOMALY": 130.9352,
        "MEAN_MOTION": 15.97862216,
        "MEAN_MOTION_DDOT": 9.6258139e-05,
        "MEAN_MOTION_DOT": 0.00461735,
        "NORAD_CAT_ID": 38767,
        "OBJECT_ID": "2012-048K",
        "OBJECT_NAME": "AEROCUBE 4.5A",
        "RA_OF_ASC_NODE": 20.3137,
        "REV_AT_EPOCH": 37294
    },
    {
        "ARG_OF_PERICENTER": 217.8573,
        "BSTAR": 7.937905e-05,
        "CLASSIFICATION_TYPE": "U",
        "ECCENTRICITY": 0.00078423,
        "ELEMENT_SET_NO": 999,
        "EPHEMERIS_TYPE": 0,
        "EPOCH": "2026-06-19T10:09:20.022624",
        "INCLINATION": 98.3923,
        "MEAN_ANOMALY": 142.2063,
        "MEAN_MOTION": 14.37164306,
        "MEAN_MOTION_DDOT": 0,
        "MEAN_MOTION_DOT": 1.93e-06,
        "NORAD_CAT_ID": 39090,
        "OBJECT_ID": "2013-009E",
        "OBJECT_NAME": "STRAND-1",
        "RA_OF_ASC_NODE": 350.6024,
        "REV_AT_EPOCH": 69738
    }
]